identifier,name,description,image,url,fileFormat,interior,tipo-evento,superEvent,subEvent,isAccessibleForFree,eventAttendanceMode,workPerformed,doorTime,audience,maximumAttendeeCapacity,typicalAgeRange,startDate,endDate,eventStatus,addressRegion,addressLocality,nombre,id,streetAddress,postalCode
1285153785025,Caravana escape room - Houdini experience (HÉCTOR SANSEGUNDO),"Disfruta de una mezcla perfecta de espectáculo de teatro y magia dentro de un museo inversivo , y forma parte de la historia viviendo un escape room único, original y con sorpresas inolvidables.",https://cultura.jcyl.es/web/jcyl/binarios/744/545/CARAVANA%20LA%20MAQUINA.jpeg,https://cultura.jcyl.es/web/jcyl/Cultura/es/Plantilla100Detalle/1284282053297/Evento/1285153785025/Comunicacion,HTML,false,http://vocab.linkeddata.es/datosabiertos/kos/cultura-ocio/agenda/tipo-evento/teatro,,,false,Presencial,,,Público familiar,301,0-,2022-08-12T22:00:00+01:00,2022-08-13T01:00:00+01:00,Por empezar,Salamanca,Lumbrales,Centro Cultural de la Villa (Lumbrales),1284236227322,"Plaza Mayor, 1",37240
1285153767042,Circo mágico (CRISPÍN DOLOT),"¡Llega el Circo, Señores y Señoras! Artistas de los lugares más remotos del Mundo. Personajes de los cinco continentes, presentados por un peculiar Jefe de pista, en el que se representan diferentes disciplinas malabarísticas, manipulación de objetos, equilibrios imposibles, música, danza, cuentos, y muchos números que encantaran a grandes y a pequeños. Pasen y vean.... el circo mundial va a comenzar.","https://cultura.jcyl.es/web/jcyl/binarios/52/812/CRISPIN%20DOLOT,6.jpeg",https://cultura.jcyl.es/web/jcyl/Cultura/es/Plantilla100Detalle/1284282053297/Evento/1285153767042/Comunicacion,HTML,true,http://vocab.linkeddata.es/datosabiertos/kos/cultura-ocio/agenda/tipo-evento/teatro,,,true,Presencial,,,Público familiar,303,0-,2022-08-11T22:00:00+01:00,2022-08-11T23:00:00+01:00,Por empezar,Salamanca,Vitigudino,Centro Cultural (Vitigudino),1284236230890,"C/ San Blas, 2.",37210
1285139023785,Danzando por el mundo (ARTESHOW ESPECTÁCULOS S.L.),"Durante toda su duración, los espectadores están viendo una variedad de danzas como: flamenco, danzas orientales, clásico español, folclore nacional... y también tenemos a nuestro gran cantante y maestro de ceremonias Raúl Ventura, reconocido mundialmente con numerosos premios de música y representante de España de música Lírica que nos ofrecerá un recorrido por varios estilos como: boleros, pasodobles, rancheras, zarzuela y muchos mas...","https://cultura.jcyl.es/web/jcyl/binarios/907/836/ARTESHOW%20ESPECT%C3%81CULOS%20S.L.,11.jpeg",https://cultura.jcyl.es/web/jcyl/Cultura/es/Plantilla100Detalle/1284282053297/Evento/1285139023785/Comunicacion,HTML,true,http://vocab.linkeddata.es/datosabiertos/kos/cultura-ocio/agenda/tipo-evento/danza,,,false,Presencial,,,Adultos,301,18-,2022-04-16T21:30:00+01:00,2022-04-16T23:00:00+01:00,Terminado,Salamanca,Lumbrales,Centro Cultural de la Villa (Lumbrales),1284236227322,"Plaza Mayor, 1",37240
1285150475149,¡El gran Cáliban! (las locas historias de un circo en miniatura) (TEATRO ALÚA),"Cáliban es el antiguo propietario del mayor circo de todos los tiempos, actualmente arruinado ya que la gente ha dejado de ir al circo. Pero a pesar de tener solo un botón y polvo en el bolsillo, Cáliban no cesará en su empeño de llevar la ilusión y la magia del circo a todos los rincones del mundo.","https://cultura.jcyl.es/web/jcyl/binarios/145/356/El%20gran%20C%C3%A1liban,5.jpeg",https://cultura.jcyl.es/web/jcyl/Cultura/es/Plantilla100Detalle/1284282053297/Evento/1285150475149/Comunicacion,HTML,true,http://vocab.linkeddata.es/datosabiertos/kos/cultura-ocio/agenda/tipo-evento/teatro,,,false,Presencial,,,Público familiar,,0-,2022-07-22T12:00:00+01:00,2022-07-22T12:40:00+01:00,Por empezar,Salamanca,Sancti-Spíritus,Centro Cultural (Sancti-Spíritus),1284305888186,"C/ Salamanca, 82",37470
1285142985689,El mueble (HISTRIÓN TEATRO),"Tati y Carlos, Carlos y Tati serían la pareja ideal si no fuera porque el montaje de un sencillo mueble sacará a la luz su complicada convivencia después de veinticinco años.",https://cultura.jcyl.es/web/jcyl/binarios/479/1013/EL%20MUEBLE.jpeg,https://cultura.jcyl.es/web/jcyl/Cultura/es/Plantilla100Detalle/1284282053297/Evento/1285142985689/Comunicacion,HTML,true,http://vocab.linkeddata.es/datosabiertos/kos/cultura-ocio/agenda/tipo-evento/teatro,,,false,Presencial,,,Adultos,,18-,2022-05-06T20:30:00+01:00,2022-05-06T21:40:00+01:00,Terminado,Salamanca,Peñaranda de Bracamonte,Teatro Calderón de la Barca,1284236228203,"C/ Cerrajeros, 16",37300
1285151041284,Los mentalistas (LA CHISTERA MÁGICA),La pareja formada por la rusa Olga Maslovska y el mentalista-coaching George Loprie serán los encargados de acompañar al publico a este viaje tan misterioso y divertido.,"https://cultura.jcyl.es/web/jcyl/binarios/659/822/Los%20mentalistas,3.jpeg",https://cultura.jcyl.es/web/jcyl/Cultura/es/Plantilla100Detalle/1284282053297/Evento/1285151041284/Comunicacion,HTML,true,http://vocab.linkeddata.es/datosabiertos/kos/cultura-ocio/agenda/tipo-evento/magia,,,,Presencial,,,Adultos,,18-,2022-07-26T22:30:00+01:00,2022-07-26T23:30:00+01:00,Por empezar,Salamanca,Ledesma,Auditorio del Centro Comarcal de Nuevas Tecnologías (Ledesma),1285139476734,Plaza Verdura 12,37100
1285139492165,Los zapateros y otras fábulas (CUENTACUENTOS KELLER),"Esta sesión consta de cinco cuentos cuyos personajes son Perros, Gatos, Duendes, zapateros y diablillos, viven historias fantásticas. Mezcla cuentos de tradición europea, fabulas orientales y adaptaciones orales de albanes de cuentos infantiles. ","https://cultura.jcyl.es/web/jcyl/binarios/931/494/CUENTOS%20DE%20BRUJAS,%20SAPOS,0.jpeg",https://cultura.jcyl.es/web/jcyl/Cultura/es/Plantilla100Detalle/1284282053297/Evento/1285139492165/Comunicacion,HTML,true,http://vocab.linkeddata.es/datosabiertos/kos/cultura-ocio/agenda/tipo-evento/teatro,,,,Presencial,,,Público familiar,,0-,2022-04-22T12:00:00+01:00,2022-04-22T12:50:00+01:00,Terminado,Salamanca,Ledesma,Auditorio del Centro Comarcal de Nuevas Tecnologías (Ledesma),1285139476734,Plaza Verdura 12,37100
1285143668478,Muerte de un viajante (OKAPI PRODUCCIONES),"Willy Loman es un viajante de comercio que ha entregado todo su esfuerzo y su carrera profesional a la empresa para la que trabaja. Su único objetivo es darle una vida mejor a su familia, su mujer y sus dos hijos, que le adoran y a los que quiere inculcarles la ambición por triunfar y progresar en la escala social.",https://cultura.jcyl.es/web/jcyl/binarios/346/805/Muerte%20de%20un%20viajante.jpeg,https://cultura.jcyl.es/web/jcyl/Cultura/es/Plantilla100Detalle/1284282053297/Evento/1285143668478/Comunicacion,HTML,true,http://vocab.linkeddata.es/datosabiertos/kos/cultura-ocio/agenda/tipo-evento/teatro,,,false,Presencial,,,Adultos,,18-,2022-05-13T21:00:00+01:00,2022-05-13T22:35:00+01:00,Terminado,Salamanca,Salamanca,Teatro Liceo de Salamanca,1284236229363,Plaza del Liceo s/n,37002
1285142371124,Un sibarita con varita (HÉCTOR SAN SEGUNDO),"""Un sibarita con varita"", su personaje es disparatado, cómico y alocado y su magia es tan increíble, que cada minuto en escena es desternillantemente e irrepetible. Un espectáculo pensado para que toda la familia pase un rato inolvidable con grandes aparatos, magia participativa y muchas, muchas risas.","https://cultura.jcyl.es/web/jcyl/binarios/41/664/Un%20sibarita%20con%20varita,3.jpeg",https://cultura.jcyl.es/web/jcyl/Cultura/es/Plantilla100Detalle/1284282053297/Evento/1285142371124/Comunicacion,HTML,true,http://vocab.linkeddata.es/datosabiertos/kos/cultura-ocio/agenda/tipo-evento/circo,,,,Presencial,,,Público familiar,,0-,2022-05-04T19:00:00+01:00,2022-05-04T20:10:00+01:00,Terminado,Salamanca,Villamayor,Teatro Casa de la Cultura Antonio Gamoneda (Villamayor),1284305892589,"C/ Escuelas Nuevas, s/n",37185
1285140678968,¡Viva la Pepa! (PENTACIÓN),"Pepa es una mujer sin futuro, madre soltera de dos gemelas que vive la vida alimentada tan solo por el aire que respira y, quizá, por la positividad y la sonrisa que nunca pierde ante tanta amargura.Pero de pronto todo cambia y, de la noche a la mañana, se convierte sin quererlo en una heroína. Los medios de comunicación hacen de ella la persona más popular del momento y políticos, periodistas y programas de televisión se la disputan.Su vida gris parece volverse rosa y las promesas de ayudas para sus hijos, para su alquiler, para todo, poco a poco se olvidan. Ante tanta mentira, Pepa decide dar un puñetazo sobre la mesa y tomar las riendas aprovechando que todavía no ha perdido del todo la popularidad. Quiere ser alcaldesa de su ciudad, Melilla. ¿Quién ha dicho que no puede serlo?","https://cultura.jcyl.es/web/jcyl/binarios/519/484/VIVA%20LA%20PEPA,5.jpeg",https://cultura.jcyl.es/web/jcyl/Cultura/es/Plantilla100Detalle/1284282053297/Evento/1285140678968/Comunicacion,HTML,true,http://vocab.linkeddata.es/datosabiertos/kos/cultura-ocio/agenda/tipo-evento/teatro,,,false,Presencial,,,Adultos,,18-,2022-04-23T20:30:00+01:00,2022-04-23T21:45:00+01:00,Terminado,Salamanca,Béjar,Teatro Cervantes de Béjar,1284236228445,"C/ Olleros, 1",37700
1285139195165,"Y tú, ¿qué sabes?... de Miguel de Cervantes (ARAWAKE)","Es Federico quien nos llega a la mesa a través de las aulas. Lo personal del poeta granadino, esa forma de entender los versos desde la libertad, el sonambulismo, el simbolismo y la abstracción pura del surrealismo, la ausencia de lirismo emocional o didáctico, la asunción de la tragedia sin el melodrama.",https://cultura.jcyl.es/web/jcyl/binarios/578/408/Arawake.jpeg,https://cultura.jcyl.es/web/jcyl/Cultura/es/Plantilla100Detalle/1284282053297/Evento/1285139195165/Comunicacion,HTML,true,http://vocab.linkeddata.es/datosabiertos/kos/cultura-ocio/agenda/tipo-evento/teatro,,,,Presencial,,,Todos los públicos,,0-,2022-04-20T19:00:00+01:00,2022-04-20T19:45:00+01:00,Terminado,Salamanca,Villamayor,Teatro Casa de la Cultura Antonio Gamoneda (Villamayor),1284305892589,"C/ Escuelas Nuevas, s/n",37185
1285141535187,A vueltas con Lorca (DOS HERMANAS CATORCE),"Es Federico quien nos llega a la mesa a través de las aulas. Lo personal del poeta granadino, esa forma de entender los versos desde la libertad, el sonambulismo, el simbolismo y la abstracción pura del surrealismo, la ausencia de lirismo emocional o didáctico, la asunción de la tragedia sin el melodrama.","https://cultura.jcyl.es/web/jcyl/binarios/998/254/A%20vueltas%20con%20Lorca,9.jpeg",https://cultura.jcyl.es/web/jcyl/Cultura/es/Plantilla100Detalle/1284282053297/Evento/1285141535187/Comunicacion,HTML,true,http://vocab.linkeddata.es/datosabiertos/kos/cultura-ocio/agenda/tipo-evento/teatro,,,false,Presencial,,,Todos los públicos,,0-,2022-04-30T20:30:00+01:00,2022-04-30T21:45:00+01:00,Terminado,Salamanca,Béjar,Teatro Cervantes de Béjar,1284236228445,"C/ Olleros, 1",37700
1285141564385,ABBA - live in concert - 50 aniversario (TEATRALMENTE PRODUCCIONES),"ABBA LIVE IN CONCERT, 50º ANIVERSARIO, recorre las canciones más representativas de la mítica banda sueca, con una puesta en escena divertida y original.",https://cultura.jcyl.es/web/jcyl/binarios/273/966/ABBA%20-%20LIVE%20IN%20CONCERT%20-%2050%20ANIVERSARIO.jpeg,https://cultura.jcyl.es/web/jcyl/Cultura/es/Plantilla100Detalle/1284282053297/Evento/1285141564385/Comunicacion,HTML,true,http://vocab.linkeddata.es/datosabiertos/kos/cultura-ocio/agenda/tipo-evento/concierto,,,false,Presencial,,,Adultos,,18-,2022-05-01T20:30:00+01:00,2022-05-01T22:00:00+01:00,Terminado,Salamanca,Béjar,Teatro Cervantes de Béjar,1284236228445,"C/ Olleros, 1",37700
1285143361309,Abrojo folk - El sueño que sobrevive (ETNO SONIDO PRODUCCIONES),"Desde hace veinticinco años Abrojo Folk está difundiendo la música tradicional por todo el territorio nacional. En su caminar por este espacio de tiempo Abrojo Folk ha grabado cuatro discos, Barrios y Lugares, Remembranzas, Entre trigos y pinares y El sueño que sobrevive, este último grabado recientemente en los estudios de grabación Armando Records de Valladolid, en ellos ha difundido tradiciones de nuestra tierra y de otras comunidades, además en el último trabajo El sueño que sobrevive ha incorporado canciones propias del grupo.","https://cultura.jcyl.es/web/jcyl/binarios/179/753/El%20sue%C3%B1o%20sobrevive,11.jpeg",https://cultura.jcyl.es/web/jcyl/Cultura/es/Plantilla100Detalle/1284282053297/Evento/1285143361309/Comunicacion,HTML,true,http://vocab.linkeddata.es/datosabiertos/kos/cultura-ocio/agenda/tipo-evento/concierto,,,false,Presencial,,,Todos los públicos,,0-,2022-05-07T18:00:00+01:00,2022-05-07T19:30:00+01:00,Terminado,Salamanca,Ciudad Rodrigo,Teatro Nuevo Fernando Arrabal,1284236229871,"C/ Gigantes, 22.",37500
1285153632819,Antes muerta que convicta (BEATRIZ RICO),"ANTES MUERTA QUE CONVICTA es algo más que una función de teatro, algo más que una simple comedia, es un espectáculo de teatro y humor, de teatro y música, de baile y teatro, de teatro e interacción... digamos que un cabaret de teatro único en gira.","https://cultura.jcyl.es/web/jcyl/binarios/777/482/Antes%20muerta%20que%20convicta,3.jpeg",https://cultura.jcyl.es/web/jcyl/Cultura/es/Plantilla100Detalle/1284282053297/Evento/1285153632819/Comunicacion,HTML,true,http://vocab.linkeddata.es/datosabiertos/kos/cultura-ocio/agenda/tipo-evento/teatro,,,true,Presencial,,,Adultos,,18-,2022-08-07T22:00:00+01:00,2022-08-07T23:15:00+01:00,Por empezar,Salamanca,Vitigudino,Centro Cultural (Vitigudino),1284236230890,"C/ San Blas, 2.",37210
1285137762140,Con la cabeza en las nubes (EUGENIA MANZANERA DE LA FUENTE),"Eugenia Manzanera quiere celebrar, que lleva en esto de la farándula 30 años.","https://cultura.jcyl.es/web/jcyl/binarios/603/951/Con%20la%20cabeza%20en%20las%20nubes,5.jpeg",https://cultura.jcyl.es/web/jcyl/Cultura/es/Plantilla100Detalle/1284282053297/Evento/1285137762140/Comunicacion,HTML,true,http://vocab.linkeddata.es/datosabiertos/kos/cultura-ocio/agenda/tipo-evento/teatro,,,,Presencial,,,Público familiar,,0-,2022-04-08T18:30:00+01:00,2022-04-08T19:20:00+01:00,Terminado,Salamanca,Villares de la Reina,Auditorio Municipal de Villares de la Reina,1285134251775,Calle Fuente 44,37184
1285141799341,Cuentacuentos el libro mágico de Kolumelah (KOLUMELAH CUENTACUENTOS),"Historias de brujas, de duendes, de princesas, de animales que hablan. A través de teatro de objetos y álbumes ilustrados la narradora va hilando un cuento tras otro. Cuentos de tierras lejanas que nos hacen soñar con un mundo mejor.","https://cultura.jcyl.es/web/jcyl/binarios/42/725/CUENTACUENTOS%20EL%20LIBROS%20M%C3%81GICO%20DE%20KOLUMELAH,5.jpeg",https://cultura.jcyl.es/web/jcyl/Cultura/es/Plantilla100Detalle/1284282053297/Evento/1285141799341/Comunicacion,HTML,true,http://vocab.linkeddata.es/datosabiertos/kos/cultura-ocio/agenda/tipo-evento/cuento,,,true,Presencial,,,Público familiar,,0-,2022-04-23T12:30:00+01:00,2022-04-23T13:20:00+01:00,Terminado,Salamanca,Vitigudino,Centro Cultural (Vitigudino),1284236230890,"C/ San Blas, 2.",37210
1285153337815,Desgraciados (TEATRO ATÓPICO),"Antonio y Manuel son dos mendigos que comparten cartones, cerveza e interminables horas de discusión sobre los temas más transcendentales de la existencia. Hace tanto tiempo que viven juntos cobijados únicamente por un viejo muro de una ciudad cualquiera, que la única desgracia que podría acabar con ellos sería la separación. Todo lo demás son simplemente las cosas de la vida. Y ellos han aprendido a vivir la suya sin poner los ojos en el mañana.","https://cultura.jcyl.es/web/jcyl/binarios/229/8/Desgraciados,12.jpeg",https://cultura.jcyl.es/web/jcyl/Cultura/es/Plantilla100Detalle/1284282053297/Evento/1285153337815/Comunicacion,HTML,true,http://vocab.linkeddata.es/datosabiertos/kos/cultura-ocio/agenda/tipo-evento/teatro,,,,Presencial,,,Adultos,,18-,2022-08-02T22:30:00+01:00,2022-08-02T23:40:00+01:00,Por empezar,Salamanca,Ledesma,Auditorio del Centro Comarcal de Nuevas Tecnologías (Ledesma),1285139476734,Plaza Verdura 12,37100
1285143675146,Inquietante (BAMBALUA TEATRO),"""Inquietante"" parte de seis relatos breves, rescatados del olvido, de los que nunca se ha hecho una propuesta escénica y que tienen un denominador común: inquietar.",https://cultura.jcyl.es/web/jcyl/binarios/457/784/Inquietante.jpeg,https://cultura.jcyl.es/web/jcyl/Cultura/es/Plantilla100Detalle/1284282053297/Evento/1285143675146/Comunicacion,HTML,true,http://vocab.linkeddata.es/datosabiertos/kos/cultura-ocio/agenda/tipo-evento/teatro,,,false,Presencial,,,Adultos,,18-,2022-05-21T20:30:00+01:00,2022-05-21T21:40:00+01:00,Terminado,Salamanca,Ciudad Rodrigo,Teatro Nuevo Fernando Arrabal,1284236229871,"C/ Gigantes, 22.",37500
1285142194935,La bruja Kalambres (INNOVARTE CREACIONES ARTISTICAS),La bruja Kalambres es descendiente de generaciones de brujas eléctricas. Una tarde de campo es sorprendida por una tormenta y un rayo será el motor de cambio en su vida de bruja.,https://cultura.jcyl.es/web/jcyl/binarios/421/866/LA%20BRUJA%20KALAMBRES.jpeg,https://cultura.jcyl.es/web/jcyl/Cultura/es/Plantilla100Detalle/1284282053297/Evento/1285142194935/Comunicacion,HTML,true,http://vocab.linkeddata.es/datosabiertos/kos/cultura-ocio/agenda/tipo-evento/teatro,,,false,Presencial,,,Público familiar,,0-,2022-04-30T18:00:00+01:00,2022-04-30T19:05:00+01:00,Terminado,Salamanca,Sequeros,Teatro León Felipe (Sequeros),1284305888989,"C/ Teatro, s/n",37650
1285141280557,La red (KAMARU TEATRO),"LA RED es una organización secreta que lucha contra el ciberacoso, utilizando métodos y tecnología alternativa para detener los casos que encuentra por internet.",https://cultura.jcyl.es/web/jcyl/binarios/528/681/LA%20RED.jpeg,https://cultura.jcyl.es/web/jcyl/Cultura/es/Plantilla100Detalle/1284282053297/Evento/1285141280557/Comunicacion,HTML,true,http://vocab.linkeddata.es/datosabiertos/kos/cultura-ocio/agenda/tipo-evento/teatro,,,,Presencial,,,Todos los públicos,,0-,2022-04-29T11:30:00+01:00,2022-04-29T12:15:00+01:00,Terminado,Salamanca,Ciudad Rodrigo,Teatro Nuevo Fernando Arrabal,1284236229871,"C/ Gigantes, 22.",37500
1285144969202,Los invisibles (LA CORACHA TEATRO),"Dos mendigos. Él, que lleva poco tiempo en la calle, no ha olvidado la vida visible y la necesita. Ella, que ya ha perdido la cuenta, ha encontrado en la invisibilidad su propia felicidad. Illa y Tío Mierda se volvieron invisibles para el mundo por razones muy distintas, y hoy celebran el primer aniversario de su encuentro en la calle.",https://cultura.jcyl.es/web/jcyl/binarios/512/478/Los%20invisibles.jpeg,https://cultura.jcyl.es/web/jcyl/Cultura/es/Plantilla100Detalle/1284282053297/Evento/1285144969202/Comunicacion,HTML,true,http://vocab.linkeddata.es/datosabiertos/kos/cultura-ocio/agenda/tipo-evento/teatro,,,false,Presencial,,,Adultos,,18-,2022-05-22T19:30:00+01:00,2022-05-22T21:00:00+01:00,Terminado,Salamanca,Sancti-Spíritus,Centro Cultural (Sancti-Spíritus),1284305888186,"C/ Salamanca, 82",37470
1285145381377,Oceanía (TRASPASOS),Oceanía es el recuerdo de una vida apasionante. Es el retrato de un país y de una época.,https://cultura.jcyl.es/web/jcyl/binarios/612/74/Ocean%C3%ADa.jpeg,https://cultura.jcyl.es/web/jcyl/Cultura/es/Plantilla100Detalle/1284282053297/Evento/1285145381377/Comunicacion,HTML,true,http://vocab.linkeddata.es/datosabiertos/kos/cultura-ocio/agenda/tipo-evento/teatro,,,false,Presencial,,,Adultos,,18-,2022-05-21T21:00:00+01:00,2022-05-21T22:30:00+01:00,Terminado,Salamanca,Salamanca,Teatro Liceo de Salamanca,1284236229363,Plaza del Liceo s/n,37002
1285139069288,Vinum (ARVINE DANZA),"Cuatro bailarinas formadas en la escuela profesional de danza de Castilla y León, y tituladas en danza española, unen sus caminos para crear este espectáculo después del primero, Jaleíto.","https://cultura.jcyl.es/web/jcyl/binarios/419/142/Vinum,13.jpeg",https://cultura.jcyl.es/web/jcyl/Cultura/es/Plantilla100Detalle/1284282053297/Evento/1285139069288/Comunicacion,HTML,true,http://vocab.linkeddata.es/datosabiertos/kos/cultura-ocio/agenda/tipo-evento/danza,,,,Presencial,,,Todos los públicos,,0-,2022-04-16T19:00:00+01:00,2022-04-16T20:00:00+01:00,Terminado,Salamanca,Villarino de los Aires,Cine Municipal de Villarino de los Aires,1284808988618,"Calle Eras, 6",37160
1285152058227,A su servicio (TIRITIRANTES CIRCO TEATRO),"""A su servicio!!"", es un espectáculo familiar donde el humor, el circo y la magia complementan a estos dos singulares personajes. El Gran Hotel Paraíso, es un hotel venido a menos, fue referente de glamour y lujo en su época dorada, pero hoy en día solo le quedan dos trabajadores, Birly & Biloque, dos personajes que tratarán que todo siga como antaño; para ello serán los botones, camareros, cocineros...se subirán en escaleras y monociclos imposibles, harán apariciones y desapariciones mágicas, malabares peculiares, levitarán a alguno de los clientes, música en directo, y con todo esto, quizá este año sí, lleguen a ser ""Los empleados del mes"".",https://cultura.jcyl.es/web/jcyl/binarios/905/1009/Dossier%20-%20A%20su%20servicio!!.jpeg,https://cultura.jcyl.es/web/jcyl/Cultura/es/Plantilla100Detalle/1284282053297/Evento/1285152058227/Comunicacion,HTML,true,http://vocab.linkeddata.es/datosabiertos/kos/cultura-ocio/agenda/tipo-evento/circo,,,false,Presencial,,,Público familiar,,0-,2022-07-31T10:30:00+01:00,2022-07-31T11:30:00+01:00,Por empezar,Salamanca,Monleras,Espacio escénico La Panera,1285133492929,Calle Valentín Iglesias 54,37171
1285153352052,Colores mágicos (MAGIA Y CUENTACUENTOS),"El mago OSKI presenta un espectáculo de magia participativo, lleno de humor y música.","https://cultura.jcyl.es/web/jcyl/binarios/276/230/Colores%20M%C3%A1gicos,3.jpeg",https://cultura.jcyl.es/web/jcyl/Cultura/es/Plantilla100Detalle/1284282053297/Evento/1285153352052/Comunicacion,HTML,true,http://vocab.linkeddata.es/datosabiertos/kos/cultura-ocio/agenda/tipo-evento/magia,,,true,Presencial,,,Público familiar,,0-,2022-08-04T20:00:00+01:00,2022-08-04T21:00:00+01:00,Por empezar,Salamanca,Vitigudino,Centro Cultural (Vitigudino),1284236230890,"C/ San Blas, 2.",37210
1285145047183,Con beee!! de oveja (KAMARU TEATRO),"El espectáculo ""Con beee de oveja"" cuenta el paso de un rebaño muy peculiar. Comandadas por Bruno, un sabio perro pastor y Margarita la pastorcilla soñadora.",https://cultura.jcyl.es/web/jcyl/binarios/193/474/Con%20beee!!%20de%20oveja.jpeg,https://cultura.jcyl.es/web/jcyl/Cultura/es/Plantilla100Detalle/1284282053297/Evento/1285145047183/Comunicacion,HTML,true,http://vocab.linkeddata.es/datosabiertos/kos/cultura-ocio/agenda/tipo-evento/teatro,,,,Presencial,,,Público familiar,,0-,2022-05-28T19:00:00+01:00,2022-05-28T20:00:00+01:00,Terminado,Salamanca,Ledesma,Auditorio del Centro Comarcal de Nuevas Tecnologías (Ledesma),1285139476734,Plaza Verdura 12,37100
1285144835353,Con la cabeza en las nubes (EUGENIA MANZANERA DE LA FUENTE),"Eugenia Manzanera quiere celebrar, que lleva en esto de la farándula 30 años.","https://cultura.jcyl.es/web/jcyl/binarios/603/951/Con%20la%20cabeza%20en%20las%20nubes,5.jpeg",https://cultura.jcyl.es/web/jcyl/Cultura/es/Plantilla100Detalle/1284282053297/Evento/1285144835353/Comunicacion,HTML,true,http://vocab.linkeddata.es/datosabiertos/kos/cultura-ocio/agenda/tipo-evento/teatro,,,,Presencial,,,Público familiar,,0-,2022-05-18T19:00:00+01:00,2022-05-18T19:50:00+01:00,Terminado,Salamanca,Villamayor,Teatro Casa de la Cultura Antonio Gamoneda (Villamayor),1284305892589,"C/ Escuelas Nuevas, s/n",37185
1285144199175,Cosas nuestras (KATUA&GALEA TEATRO),«Cosas nuestras» es el título de esta sesión de cuentos. Un espectáculo de narración oral para mujeres y hombres con lo femenino como hilo conductor de las diferentes historias que dan forma a este espectáculo.,"https://cultura.jcyl.es/web/jcyl/binarios/842/463/COSAS%20NUESTRAS,3.jpeg",https://cultura.jcyl.es/web/jcyl/Cultura/es/Plantilla100Detalle/1284282053297/Evento/1285144199175/Comunicacion,HTML,true,http://vocab.linkeddata.es/datosabiertos/kos/cultura-ocio/agenda/tipo-evento/teatro,,,false,Presencial,,,Adultos,,18-,2022-05-14T22:30:00+01:00,2022-05-14T23:30:00+01:00,Terminado,Salamanca,Monleras,Espacio escénico La Panera,1285133492929,Calle Valentín Iglesias 54,37171
1285152029237,El bosque de cuentos (CHARO JAULAR),"Historias de árboles únicos y mágicos del mundo, son fuente de vida, historias tradicionales del mundo, los árboles, ven a escucharles, son unos de los habitantes más antiguos de la tierra.","https://cultura.jcyl.es/web/jcyl/binarios/748/60/EL%20BOSQUE%20DE%20CUENTOS,3.jpeg",https://cultura.jcyl.es/web/jcyl/Cultura/es/Plantilla100Detalle/1284282053297/Evento/1285152029237/Comunicacion,HTML,true,http://vocab.linkeddata.es/datosabiertos/kos/cultura-ocio/agenda/tipo-evento/teatro,,,false,Presencial,,,Público familiar,,0-,2022-07-30T20:00:00+01:00,2022-07-30T21:00:00+01:00,Por empezar,Salamanca,Sequeros,Teatro León Felipe (Sequeros),1284305888989,"C/ Teatro, s/n",37650
1285150149603,El circo de las ranas (JUAN CATALINA),EL CIRCO DE LAS RANAS es Beppo el barrendero quien nos hace reflexionar sobre toda la basura que generamos como sociedad y nos invita a dar solución.,https://cultura.jcyl.es/web/jcyl/binarios/165/237/El%20circo%20de%20las%20ranas.jpeg,https://cultura.jcyl.es/web/jcyl/Cultura/es/Plantilla100Detalle/1284282053297/Evento/1285150149603/Comunicacion,HTML,false,http://vocab.linkeddata.es/datosabiertos/kos/cultura-ocio/agenda/tipo-evento/teatro,,,false,Presencial,,,Público familiar,,0-,2022-07-16T22:30:00+01:00,2022-07-16T23:25:00+01:00,Por empezar,Salamanca,Monleras,Espacio escénico La Panera,1285133492929,Calle Valentín Iglesias 54,37171
1285138670602,El sótano encantado (TEATRO MUTIS),"Rosaura, una muchacha que lee muchos libros fantásticos y de misterio, y cree en fantasmas, espíritus, magia y encantamientos, tiene como mejor amigo a Leo, un chico con los pies en la tierra, que sólo confía en su razón y cree que todas esas cosas son cuentos para niños.","https://cultura.jcyl.es/web/jcyl/binarios/560/461/El%20s%C3%B3tano%20encantado,9.jpeg",https://cultura.jcyl.es/web/jcyl/Cultura/es/Plantilla100Detalle/1284282053297/Evento/1285138670602/Comunicacion,HTML,true,http://vocab.linkeddata.es/datosabiertos/kos/cultura-ocio/agenda/tipo-evento/teatro,,,,Presencial,,,Público familiar,,0-,2022-04-15T19:00:00+01:00,2022-04-15T20:00:00+01:00,Terminado,Salamanca,Villarino de los Aires,Cine Municipal de Villarino de los Aires,1284808988618,"Calle Eras, 6",37160
1285139511846,Guitarras de cine (JESÚS PARRA),"Grupo de guitarristas, que presentaron en el festival de cine Europeo de Segovia, su repertorio de música de cine a dos guitarras y en clave de jazz. Temas como ""Lo que el viento se llevo"" ,""Entertainer"", ""As times go by"", ""Amelie"", ""Amarcord"", etc haciendo un repaso a bandas sonoras de toda la vida que nos han marcado.",https://cultura.jcyl.es/web/jcyl/binarios/281/71/La%20Celestina.jpeg,https://cultura.jcyl.es/web/jcyl/Cultura/es/Plantilla100Detalle/1284282053297/Evento/1285139511846/Comunicacion,HTML,true,http://vocab.linkeddata.es/datosabiertos/kos/cultura-ocio/agenda/tipo-evento/concierto,,,,Presencial,,,Adultos,,18-,2022-04-22T20:30:00+01:00,2022-04-22T21:50:00+01:00,Terminado,Salamanca,Villoria,Teatro Municipal (Villoria),1284306374656,"C/ Cañada, 4",37339
1285142107385,"La Celestina, un selfie con Melibea (UN PINGÜINO PRODUCCIONES)","Sara lee ensimismada ""La Celestina"", de pronto, vencida por la noche, se queda dormida, la primera sorpresa llega cuando está hablando con Melibea, pues resulta que está viviendo la aventura dentro del cuerpo de Calisto.","https://datosabiertos.jcyl.es/web/jcyl/binarios/281/71/La%20Celestina,0.jpeg?blobheader=image%2Fjpeg&amp;blobheadername1=Cache-Control&amp;blobheadername2=Expires&amp;blobheadername3=Site&amp;blobheadervalue1=no-store%2Cno-cache%2Cmust-revalidate&amp;blobheadervalue2=0&amp;blobnocache=true",https://cultura.jcyl.es/web/jcyl/Cultura/es/Plantilla100Detalle/1284282053297/Evento/1285142107385/Comunicacion,HTML,true,http://vocab.linkeddata.es/datosabiertos/kos/cultura-ocio/agenda/tipo-evento/teatro,,,,Presencial,,,Adultos,,18-,2022-04-30T20:00:00+01:00,2022-04-30T21:25:00+01:00,Terminado,Salamanca,Macotera,Centro Cultural de Santa Ana (Macotera),1284262981154,"Plaza de Santa Ana, s/n",37310
1285137724159,La Chimba (INNOVARTE CREACIONES ARTISTICAS),Comienza el circo sin haber elevado la carpa y sin haber preparado ninguna pista. Pues el Circo la Chimba disfruta del calor del sol o de la luz de las estrellas.,"https://cultura.jcyl.es/web/jcyl/binarios/547/462/La%20Chimba,3.jpeg",https://cultura.jcyl.es/web/jcyl/Cultura/es/Plantilla100Detalle/1284282053297/Evento/1285137724159/Comunicacion,HTML,false,http://vocab.linkeddata.es/datosabiertos/kos/cultura-ocio/agenda/tipo-evento/circo,,,true,Presencial,,,Público familiar,,0-,2022-04-08T12:00:00+01:00,2022-04-08T13:00:00+01:00,Terminado,Salamanca,Guijuelo,Centro Cultural (Guijuelo),1284236225606,"C/ Príncipe Felipe, 55",03770
1285149591405,La vida es un cuento y los cuentos sueños son (POPY VEGAS),"La duende Elva es una excelente cocinera, y por lo tanto narradora de historias y juglar en los caminos. Brujas, bosques, títeres, y cuentos secretos se van a narrar en esta obra haciéndonos pasar un rato especial. La duende Elva será la maestra de ceremonia que nos guiará por el camino, y aquella que nos mostrará existencia de la magia.","https://cultura.jcyl.es/web/jcyl/binarios/630/760/La%20vida%20es%20un%20cuento%20y%20los%20cuentos%20sue%C3%B1os%20son.,3.jpeg",https://cultura.jcyl.es/web/jcyl/Cultura/es/Plantilla100Detalle/1284282053297/Evento/1285149591405/Comunicacion,HTML,true,http://vocab.linkeddata.es/datosabiertos/kos/cultura-ocio/agenda/tipo-evento/teatro,,,false,Presencial,,,Público familiar,,0-,2022-07-01T12:00:00+01:00,2022-07-01T13:00:00+01:00,Por empezar,Salamanca,Sancti-Spíritus,Centro Cultural (Sancti-Spíritus),1284305888186,"C/ Salamanca, 82",37470
1285153654373,Monólogos con JJ Vaquero (GORI PRODUCIONES),"J.J. Vaquero en su espectáculo Vaquero, hace lo que suele hacer Vaquero. Si lo conoces, ya sabes de lo que te hablamos y si no lo conoces, pues ven a verlo",https://cultura.jcyl.es/web/jcyl/binarios/838/509/Mon%C3%B3logos%20con%20JJ%20Vaquero.jpeg,https://cultura.jcyl.es/web/jcyl/Cultura/es/Plantilla100Detalle/1284282053297/Evento/1285153654373/Comunicacion,HTML,true,http://vocab.linkeddata.es/datosabiertos/kos/cultura-ocio/agenda/tipo-evento/teatro,,,,Presencial,,,Todos los públicos,,0-,2022-08-10T23:00:00+01:00,2022-08-10T00:00:00+01:00,Por empezar,Salamanca,Villarino de los Aires,Cine Municipal de Villarino de los Aires,1284808988618,"Calle Eras, 6",37160
1285145014610,Ópera para rock para niños: Rapunzel (FERRO TEATRO),"Nico y Nica, dos aldeanos despistados pero tortolitos (el uno con el otro) vivían en un chozo vecino a la casa de la malvada bruja Fräulein Inga, una bruja malvada y friki de los vegetales en conserva. Pero Nico y Nica, que además de tortolitos eran turulatos y despistados, vivían ajenos a este hecho y se quedan embarazados. Un día, la joven embarazada ve por un agujerito de la tapia, el apetitoso huerto de la vecina de al lado y le entra antojo de canónigos. Su marido Nico, con tal de complacerla, se aventura a saltar la tapia para robar esos canónigos para su mujer cuando Fräulein Inga le pilla por sorpresa. En pago de este agravio, la Bruja exige darle al bebé que pronto nacería o de lo contrario, grandes maldiciones caerían sobre su familia. Este bebé resulta ser Rapunzel, a la que inicialmente la bruja iba a ponerle por nombre ""Canónigo"" en recuerdo a este hecho, pero que finalmente decidió traducirlo al alemán porque quedaba más elegante. Pues debéis saber, amiguitos, que canónigo en alemán es Rapunzel. Aquí comienza la historia de la que no os pienso desvelar nada más, aunque daré un adelanto, pues no está exenta de escaladas por torres, grandes trenzas, príncipes azules guapísimos y un amor que supera todas las barreras.",https://cultura.jcyl.es/web/jcyl/binarios/449/322/%C3%93pera%20para%20rock%20para%20ni%C3%B1os.jpeg,https://cultura.jcyl.es/web/jcyl/Cultura/es/Plantilla100Detalle/1284282053297/Evento/1285145014610/Comunicacion,HTML,true,http://vocab.linkeddata.es/datosabiertos/kos/cultura-ocio/agenda/tipo-evento/concierto,,,,Presencial,,,Público familiar,,0-,2022-05-27T12:00:00+01:00,2022-05-27T13:10:00+01:00,Terminado,Salamanca,Santa Marta de Tormes,Salón de Actos Padres Paúles,1284699585767,"Avenida Padres Paúles, nº 14",37900
1285153751569,Payasos de Risolandia (PANDORA ANIMACIÓN),Chalie y Pipa son dos payasos muy amigos pero Chalie quiere hacer un número en el que lanza un cuchillo a un globo que Pipa tiene en la cabeza y esto a Pipa le asusta mucho.,https://cultura.jcyl.es/web/jcyl/binarios/577/142/Manol%C3%ADn%20el%20viajero.jpeg,https://cultura.jcyl.es/web/jcyl/Cultura/es/Plantilla100Detalle/1284282053297/Evento/1285153751569/Comunicacion,HTML,true,http://vocab.linkeddata.es/datosabiertos/kos/cultura-ocio/agenda/tipo-evento/teatro,,,true,Presencial,,,Público familiar,,0-,2022-08-10T12:00:00+01:00,2022-08-10T13:00:00+01:00,Por empezar,Salamanca,Vitigudino,Centro Cultural (Vitigudino),1284236230890,"C/ San Blas, 2.",37210
1285140239576,Silencio (AVANCE PRODUCCIONES TEATRALES),"Vestido con un traje de etiqueta dentro del que no acaba de sentirse cómodo, cumpliendo con el preceptivo protocolo, el dramaturgo, o acaso una actriz amiga a quien ha pedido que lo represente en el solemne acto, va a ingresar en la Academia pronunciando un discurso titulado Silencio.",https://cultura.jcyl.es/web/jcyl/binarios/876/782/SILENCIO.jpeg,https://cultura.jcyl.es/web/jcyl/Cultura/es/Plantilla100Detalle/1284282053297/Evento/1285143854976/Comunicacion,HTML,true,http://vocab.linkeddata.es/datosabiertos/kos/cultura-ocio/agenda/tipo-evento/teatro,,,false,Presencial,,,Adultos,,18-,2022-04-09T21:00:00+01:00,2022-04-09T22:20:00+01:00,Terminado,Salamanca,Salamanca,Teatro Liceo de Salamanca,1284236229363,Plaza del Liceo s/n,37002
1285143854976,Soliluna (HILANDO TITERES),Espectáculo de títeres de mesa en el que el tema principal es la importancia de la ESCUCHA ACTIVA en la RESOLUCIÓN DE CONFLICTOS.,"https://cultura.jcyl.es/web/jcyl/binarios/353/222/SOLILUNA,5.jpeg",https://cultura.jcyl.es/web/jcyl/Cultura/es/Plantilla100Detalle/1284282053297/Evento/1285143854976/Comunicacion,HTML,true,http://vocab.linkeddata.es/datosabiertos/kos/cultura-ocio/agenda/tipo-evento/teatro,,,false,Presencial,,,Público familiar,,0-,2022-05-13T19:00:00+01:00,2022-05-13T19:55:00+01:00,Terminado,Salamanca,Guijuelo,Centro Cultural (Guijuelo),1284236225606,"C/ Príncipe Felipe, 55",03770
1285153756368,Tributo a Manolo Escobar (LUIS ESCUDERO),"Luis Escudero ofrece un espectáculo de algo más de una hora de duración, convertido en un tributo a Manolo Escobar, con su particular voz, nunca una imitación, que brinda las canciones, los recuerdos, la música y el espectáculo que hizo que cientos de españoles disfrutarán de la música con coplas que inundaron las primeros puestos de todas las listas de éxitos.","https://cultura.jcyl.es/web/jcyl/binarios/127/10/Tributo%20a%20Manolo%20Escobar,5.jpeg",https://cultura.jcyl.es/web/jcyl/Cultura/es/Plantilla100Detalle/1284282053297/Evento/1285153756368/Comunicacion,HTML,true,http://vocab.linkeddata.es/datosabiertos/kos/cultura-ocio/agenda/tipo-evento/concierto,,,,Presencial,,,Todos los públicos,,0-,2022-08-11T23:00:00+01:00,2022-08-11T00:30:00+01:00,Por empezar,Salamanca,Villarino de los Aires,Cine Municipal de Villarino de los Aires,1284808988618,"Calle Eras, 6",37160
1285153724090,"Versiones Pop Rock años 60, 70, 80, 90 (BACK TO THE COVERS)","Back to the Cover es un grupo de versiones de clásicos del rock, esos temas que todos conocemos, aunque no siempre sepamos quiénes son sus intérpretes. Canciones que nos llevarán desde los años 60, 70, 80, 90...hasta nuestros días. Grupo creado para mantener la atención del espectador, ya que todos sus temas son reconocidos por los amantes de la música en general. Ideal para todo tipo de eventos en los que se quiera disfrutar de buena música, repasando los mejores clásicos del rock de la historia.","https://cultura.jcyl.es/web/jcyl/binarios/607/319/BACK%20TO%20THE%20COVERS,1.jpeg",https://cultura.jcyl.es/web/jcyl/Cultura/es/Plantilla100Detalle/1284282053297/Evento/1285153724090/Comunicacion,HTML,true,http://vocab.linkeddata.es/datosabiertos/kos/cultura-ocio/agenda/tipo-evento/concierto,,,true,Presencial,,,Todos los públicos,,0-,2022-08-09T22:00:00+01:00,2022-08-09T00:00:00+01:00,Por empezar,Salamanca,Vitigudino,Centro Cultural (Vitigudino),1284236230890,"C/ San Blas, 2.",37210
3423,Paquete especial Semana Santa. Entradas a espacios interiores del Castillo de Lorca. (Del 14 al 17 de Abril),Recorre el Castillo al completo y a tu ritmo con una audioguía mientras disfrutas del aire libre y del mejor paisaje del valle.,http://lorcaturismo.es/imagensubidas/castillo-Lorca.jpg,https://www.lorca.es/agenda/detalleagenda.asp?idagenda=3423,HTML,false,http://vocab.linkeddata.es/datosabiertos/kos/cultura-ocio/agenda/tipo-evento/turismo,,,false,Presencial,,,Todos los públicos,,0-,2020-04-14T00:00:00+01:00,2022-04-17T00:00:00+01:00,Terminado,Murcia,Lorca,Castillo de Lorca - Fortaleza del Sol,1,CASTILLO FORTALEZA DEL SOL. S. X - XX,30800
3403,EXPOSICIÓN CARTELES DE SEMANA SANTA LORCA,Una retrospectiva de la cartelería de Semana Santa,http://lorcaturismo.es/imagensubidas/14032013122937.jpg,https://www.lorca.es/agenda/detalleagenda.asp?idagenda=3403,HTML,true,http://vocab.linkeddata.es/datosabiertos/kos/cultura-ocio/agenda/tipo-evento/exposicion,,,true,Presencial,,,Todos los públicos,,0-,2022-03-29T00:00:00+01:00,2022-04-17T00:00:00+01:00,Terminado,Murcia,Lorca, PALACIO DE GUEVARA. S. XVII - XVIII,7,C/ Lope Gisbert,30800
3426,El Rey Sabio para niños: el ajedrez y la Torre Alfonsina ,"Participa en una visita guiada especial orientada a familias con niños centrada en el conocimiento de Alfonso X El Sabio y su relación con Lorca, descubriendo su pasión por el ajedrez mientras juegas como un niño con nuestro ajedrez gigante,fiel reproducción del que se usaba en su época.",http://lorcaturismo.es/imagensubidas/castillo-Lorca.jpg,https://www.lorca.es/agenda/detalleagenda.asp?idagenda=3426,HTML,false,http://vocab.linkeddata.es/datosabiertos/kos/cultura-ocio/agenda/tipo-evento/ajedrez,,,false,Presencial,,,Infantil,,0-18,2022-04-02T00:00:00+01:00,2022-04-23T00:00:00+01:00,Terminado,Murcia,Lorca,Castillo de Lorca - Fortaleza del Sol,1,CASTILLO FORTALEZA DEL SOL. S. X - XX,30800
3421,SILVESTRISMO,Concurso de canto de jilgueros y mixtos,https://culturayfestejos.lorca.es/imagAgenda/0848246042022160781.jpeg,https://www.lorca.es/agenda/detalleagenda.asp?idagenda=3421,HTML,false,http://vocab.linkeddata.es/page/datosabiertos/kos/cultura-ocio/agenda/tipo-evento/concurso,,,true,Presencial,,,Todos los públicos,,0-,2022-04-09T00:00:00+01:00,2022-04-09T00:00:00+01:00,Terminado,Murcia,Lorca,Estadio Fco. Artés Carrasco, ,"C/ Diseminado Torrecilla, 84D",30817
3360,AUTOMOVILISMO,Rallye T.C. Zarcilla de Ramos,https://culturayfestejos.lorca.es/imagAgenda/0642375042022787881.jpg,https://www.lorca.es/agenda/detalleagenda.asp?idagenda=3360,HTML,true,http://vocab.linkeddata.es/page/datosabiertos/kos/cultura-ocio/agenda/tipo-evento/rallye,,,true,Presencial,,,Todos los públicos,,0-,2022-04-09T00:00:00+01:00,2022-04-09T00:00:00+01:00,Terminado,Murcia,Lorca,Zarcilla de Ramos, ,"CR. DE LORCA, 3",30810
3317,Visita teatralizada: EL SECRETO DEL IRLANDÉS,Recorreremos el centro monumental siguiendo una trama de misterio,http://lorcaturismo.es/imagensubidas/oficina-virtual-turismo.jpg,https://www.lorca.es/agenda/detalleagenda.asp?idagenda=3317,HTML,false,http://vocab.linkeddata.es/datosabiertos/kos/cultura-ocio/agenda/tipo-evento/excursion,,,true,Presencial,,,Todos los públicos,,0-,2022-06-04T00:00:00+01:00,2022-06-04T00:00:00+01:00,Por empezar,Murcia,Lorca,OFICINA DE TURISMO DE LORCA. PLAZA DE ESPAÑA, ,"Plaza de España, 7",30800
3302,Visita guiada: LORCA MONUMENTAL Y SU BORDADO,,http://lorcaturismo.es/imagensubidas/oficina-virtual-turismo.jpg,https://www.lorca.es/agenda/detalleagenda.asp?idagenda=3302,HTML,false,http://vocab.linkeddata.es/datosabiertos/kos/cultura-ocio/agenda/tipo-evento/excursion,,,true,Presencial,,,Todos los públicos,,0-,2022-06-09T00:00:00+01:00,2022-06-09T00:00:00+01:00,Por empezar,Murcia,Lorca,OFICINA DE TURISMO DE LORCA. PLAZA DE ESPAÑA, ,"Plaza de España, 7",30800
3328,Visita guiada: EL CASCO ANTIGUO DE LORCA,,http://lorcaturismo.es/imagensubidas/oficina-virtual-turismo.jpg,https://www.lorca.es/agenda/detalleagenda.asp?idagenda=3328,HTML,false,http://vocab.linkeddata.es/datosabiertos/kos/cultura-ocio/agenda/tipo-evento/excursion,,,true,Presencial,,,Todos los públicos,,0-,2022-06-18T00:00:00+01:00,2022-06-18T00:00:00+01:00,Por empezar,Murcia,Lorca,OFICINA DE TURISMO DE LORCA. PLAZA DE ESPAÑA, ,"Plaza de España, 7",30800
11637393,Abalconados 2020,Comedia gestual sobre el confinamiento dirigida por Jony Elías.    ,https://www.madrid.es/UnidadesDescentralizadas/DistritoCiudadLineal/PROGRAMACIONCULTURAL/2022ABRIL/CC%20SAN%20JUAN%20BAUTISTA/Eventos/ficheros/Abalconados.jpeg,http://www.madrid.es/sites/v/index.jsp?vgnextchannel=ca9671ee4a9eb410VgnVCM100000171f5a0aRCRD&vgnextoid=55ed5d8cc3cbf710VgnVCM2000001f4a900aRCRD,HTML,true,http://vocab.linkeddata.es/datosabiertos/kos/cultura-ocio/agenda/tipo-evento/monologo,,,true,Presencial,,,Mayores,,12-,2022-04-29T19:00:00+01:00,2022-04-29T20:20:00+01:00,Terminado,Comunidad de Madrid,Madrid,Centro Cultural San Juan Bautista (Ciudad Lineal),1958,CALLE SAN NEMESIO 4,28043
11637388,Amores en Quequén,"Compañía argentina en gira internacional, presenta una función con música en vivo al estilo de las comedias musicales, títeres grandes y retablos móviles. Una historia de almas gemelas.",https://www.madrid.es/UnidadesDescentralizadas/DistritoCiudadLineal/PROGRAMACIONCULTURAL/2022ABRIL/CC%20SAN%20JUAN%20BAUTISTA/Eventos/ficheros/Amores.jpg,http://www.madrid.es/sites/v/index.jsp?vgnextchannel=ca9671ee4a9eb410VgnVCM100000171f5a0aRCRD&vgnextoid=ab9d5d8cc3cbf710VgnVCM2000001f4a900aRCRD,HTML,true,http://vocab.linkeddata.es/datosabiertos/kos/cultura-ocio/agenda/tipo-evento/concierto,,,true,Presencial,,,Infantil,,2-99,2022-04-02T18:00:00+01:00,2022-04-02T19:00:00+01:00,Terminado,Comunidad de Madrid,Madrid,Centro Cultural San Juan Bautista (Ciudad Lineal),1958,CALLE SAN NEMESIO 4,28043
11578054,Antonio Lizana (Latina),"La música de Antonio Lizana supone un viaje desde las raíces del flamenco hasta el jazz contemporáneo, que se entrelaza con letras que muestran un compromiso personal con la verdad y con el desarrollo de la conciencia humana a nivel global.",https://www.madrid.es/UnidadesDescentralizadas/CiudadDistrito/ficheros/CIUDAD_DISTRITO_131667_es.jpg,http://www.madrid.es/sites/v/index.jsp?vgnextchannel=ca9671ee4a9eb410VgnVCM100000171f5a0aRCRD&vgnextoid=052accd334b8e710VgnVCM2000001f4a900aRCRD,HTML,true,http://vocab.linkeddata.es/datosabiertos/kos/cultura-ocio/agenda/tipo-evento/concierto,,,true,Presencial,,,Todos los públicos,,16-,2022-11-26T20:00:00+01:00,2022-11-26,Por empezar,Comunidad de Madrid,Madrid,Auditorio y sala de exposiciones Paco de Lucía (Latina),139451,AVENIDA LAS AGUILAS 2,28044
11591790,Ari Tavares - Villa de Vallecas,"Nacido en Portugal, Ari Tavares empezó su viaje musical desde su infancia en Cabo Verde, donde se especializó en beatbox y percusión. Interesado por los samples y las frecuencias, a través del ordenador descubrió la manera de producir todo tipo de sonoridades, desde el afro jazz a los sonidos funky, pasando por el lo-fi y el future rap.",https://www.madrid.es/UnidadesDescentralizadas/CiudadDistrito/ficheros/CIUDAD_DISTRITO_133738_es.jpg,http://www.madrid.es/sites/v/index.jsp?vgnextchannel=ca9671ee4a9eb410VgnVCM100000171f5a0aRCRD&vgnextoid=e445847c2f4ce710VgnVCM1000001d4a900aRCRD,HTML,true,http://vocab.linkeddata.es/datosabiertos/kos/cultura-ocio/agenda/tipo-evento/concierto,,,true,Presencial,,,Todos los públicos,,16-,2022-10-22T20:00:00+01:00,2022-10-22,Por empezar,Comunidad de Madrid,Madrid,Centro Juvenil El Sitio de mi Recreo (Villa de Vallecas),182139,CALLE REAL DE ARGANDA 39,28031
11615773,Asesoría informática,"Si tienes dudas básicas de informática y sobre el uso de tu móvil, tableta o tu ordenador, contacta con nosotras y te ayudaremos.",https://www.madrid.es/UnidadesDescentralizadas/IgualdadDeOportunidades/ContenidosBasicos/Actividades/Espacios%20Igualdad/2022/carmechacon/ficheros/permanente_asesoriainformatica_carmechacon.jpg,http://www.madrid.es/sites/v/index.jsp?vgnextchannel=ca9671ee4a9eb410VgnVCM100000171f5a0aRCRD&vgnextoid=6d3580746844f710VgnVCM2000001f4a900aRCRD,HTML,true,http://vocab.linkeddata.es/datosabiertos/kos/cultura-ocio/agenda/tipo-evento/taller,,,true,Presencial,,,Mujeres,,18-,2022-03-07T13:30:00+01:00,2022-12-26T14:30:00+01:00,Por empezar,Comunidad de Madrid,Madrid,Espacio de Igualdad Carme Chacón. Hortaleza,10759229,CALLE MATAPOZUELOS 2,28043
11566513,Batucada feminista,"Únete a este espacio de re-percusión. Un lugar de encuentro para mujeres, donde a través de la percusión y los ritmos propuestos, poder expresarnos, crear redes entre mujeres y fortalecer nuestro lado más artístico y creativo. ",,http://www.madrid.es/sites/v/index.jsp?vgnextchannel=ca9671ee4a9eb410VgnVCM100000171f5a0aRCRD&vgnextoid=08ae6591d0a2e710VgnVCM1000001d4a900aRCRD,HTML,true,http://vocab.linkeddata.es/datosabiertos/kos/cultura-ocio/agenda/tipo-evento/taller,,,true,Presencial,,,Mujeres,,18-,2022-01-14T19:00:00+01:00,2022-06-17T20:30:00+01:00,Por empezar,Comunidad de Madrid,Madrid,Espacio de Igualdad Elena Arnedo Soriano. Retiro,10662957,CALLE ARREGUI Y ARUEJ 31,28007
11580799,"Bengala, una vida en doce asaltos (Hortaleza)","El campeón Mundial de boxeo Maravilla Martínez protagoniza esta obra que, en contraposición con su historia, habla de un sueño que se acaba, de un boxeador al que se le termina el tiempo de un reloj que golpea en su cabeza, una campana que lo aturde: su pasado y su presente. ",https://www.madrid.es/UnidadesDescentralizadas/CiudadDistrito/ficheros/CIUDAD_DISTRITO_132592_es.jpg,http://www.madrid.es/sites/v/index.jsp?vgnextchannel=ca9671ee4a9eb410VgnVCM100000171f5a0aRCRD&vgnextoid=43f58e4cbaa9e710VgnVCM2000001f4a900aRCRD,HTML,true,http://vocab.linkeddata.es/datosabiertos/kos/cultura-ocio/agenda/tipo-evento/teatro,,,true,Presencial,,,Adultos,,18-,2022-10-14T19:00:00+01:00,2022-10-14T20:30:00+01:00,Por empezar,Comunidad de Madrid,Madrid,Centro Cultural Carril del Conde (Hortaleza),118317,CALLE CARRIL DEL CONDE 57,28043
11640435,Cavernícola,"Establecida al inicio de los tiempos, cuando criaturas prehistóricas y Mamuts lanudos deambulaban por la tierra, El Cavernícola narra la historia de Dug, junto con su amigo Cerdog, cuando ellos unen a su tribu en contra del archienemigo Lord Nooth y su Ciudad de la Era del Bronce para salvar su hogar. Edad recomendada para todos los públicos.",https://www.madrid.es/UnidadesDescentralizadas/DistritoMoratalaz/Actividades/2022/Abril/ficheros/cavernicola.jpg,http://www.madrid.es/sites/v/index.jsp?vgnextchannel=ca9671ee4a9eb410VgnVCM100000171f5a0aRCRD&vgnextoid=c8152bbe480df710VgnVCM2000001f4a900aRCRD,HTML,true,http://vocab.linkeddata.es/datosabiertos/kos/cultura-ocio/agenda/tipo-evento/pelicula,,,true,Presencial,,,Infantil,,0-16,2022-04-02T12:00:00+01:00,2022-04-02,Terminado,Comunidad de Madrid,Madrid,Centro Cultural el Torito (Moratalaz),1940,AVENIDA MORATALAZ 130,28030
11566482,Círculo de mujeres: autodescubrimiento y autoestima,"Este es un espacio de encuentro para mujeres, donde nos reunimos para compartir nuestras experiencias, para expresarnos tal y como somos, para conectar con nuestra creatividad y sabiduría, para aprender con otras mujeres. Un taller para conocerte, abrazarte y cuidarte. ",,http://www.madrid.es/sites/v/index.jsp?vgnextchannel=ca9671ee4a9eb410VgnVCM100000171f5a0aRCRD&vgnextoid=b93d6591d0a2e710VgnVCM1000001d4a900aRCRD,HTML,true,http://vocab.linkeddata.es/datosabiertos/kos/cultura-ocio/agenda/tipo-evento/taller,,,true,Presencial,,,Mujeres,,18-,2022-04-07T18:30:00+01:00,2022-06-16T20:00:00+01:00,Por empezar,Comunidad de Madrid,Madrid,Espacio de Igualdad Elena Arnedo Soriano. Retiro,10662957,CALLE ARREGUI Y ARUEJ 31,28007
11566487,Creciendo juntas,"A través del movimiento, el ritmo, la danza-baile, la expresividad, el trabajo con los personajes, el teatro, la voz y sonido creamos juntas un espacio para liberarnos de aquello que nos molesta y atormenta (soltar la rabia, la impotencia, la depresión, el dolor...).",,http://www.madrid.es/sites/v/index.jsp?vgnextchannel=ca9671ee4a9eb410VgnVCM100000171f5a0aRCRD&vgnextoid=bb9d6591d0a2e710VgnVCM1000001d4a900aRCRD,HTML,true,http://vocab.linkeddata.es/datosabiertos/kos/cultura-ocio/agenda/tipo-evento/taller,,,true,Presencial,,,Mujeres,,18-,2022-03-30T17:00:00+01:00,2022-06-22T19:00:00+01:00,Por empezar,Comunidad de Madrid,Madrid,Espacio de Igualdad Elena Arnedo Soriano. Retiro,10662957,CALLE ARREGUI Y ARUEJ 31,28007
10621974,Dance Studio 23,Participa en nuestro grupo de danzas urbanas y aprende todo tipo de pasos y estilos que te puedas imaginar y de forma gratuita. ¡No te lo pierdas! ,,http://www.madrid.es/sites/v/index.jsp?vgnextchannel=ca9671ee4a9eb410VgnVCM100000171f5a0aRCRD&vgnextoid=aaf8afe611991610VgnVCM1000001d4a900aRCRD,HTML,true,http://vocab.linkeddata.es/datosabiertos/kos/cultura-ocio/agenda/tipo-evento/danza,,,true,Presencial,,,Jovenes,15,,2022-04-07T18:30:00+01:00,2022-04-28T19:30:00+01:00,Terminado,Comunidad de Madrid,Madrid,Centro Juvenil Carabanchel Alto,4703662,CALLE ALFONSO FERNANDEZ 23,28044
11587808,Degustación de felicidad,"Un espacio abierto para el autocuidado donde compartiremos estrategias y técnicas de relajación y bienestar aplicables a la vida cotidiana. Se trata de un taller pensado para hacer un alto en el camino para contactar con tu cuerpo, coger fuerza y cuidar de tu salud física y emocional. Si te apetece dedicarte un rato para ti y compartir con otras mujeres, no lo dudes ¡te esperamos todos los miércoles en este taller exprés antiestrés! Puedes venir a sesiones sueltas o de forma continuada.",https://www.madrid.es/UnidadesDescentralizadas/IgualdadDeOportunidades/ContenidosBasicos/Actividades/Espacios%20Igualdad/2022/elenaarnedo/ficheros/miercoles_felicidad_arnedo.jpg,http://www.madrid.es/sites/v/index.jsp?vgnextchannel=ca9671ee4a9eb410VgnVCM100000171f5a0aRCRD&vgnextoid=5a9c8d03a6abe710VgnVCM2000001f4a900aRCRD,HTML,true,http://vocab.linkeddata.es/datosabiertos/kos/cultura-ocio/agenda/tipo-evento/taller,,,true,Presencial,,,Mujeres,,18-,2022-04-06T10:30:00+01:00,2022-06-22T11:30:00+01:00,Por empezar,Comunidad de Madrid,Madrid,Espacio de Igualdad Elena Arnedo Soriano. Retiro,10662957,CALLE ARREGUI Y ARUEJ 31,28007
11413107,Dystopie,"En Dystopie todos execran de la propiedad privada, pero secretamente trabajan para obtenerla. Todos detestan las diferencias, pero siempre buscan ser especiales. Todos odian el dinero, pero una vez obtenido nadie lo regala. Todos aborrecen la religión, pero abrazan sus propios dogmas inventados día a día. Todos ignoran la política, pero durante toda la vida no hacen más que votar a los mismos líderes que se alternan el poder entre ellos. Todos consideran que el estudio es lo más importante, pero odian las calificaciones.",https://www.madrid.es/UnidadWeb/UGBBDD/MadridDestino/ficheros/MADRID_DESTINO_35197_es.jpeg,http://www.madrid.es/sites/v/index.jsp?vgnextchannel=ca9671ee4a9eb410VgnVCM100000171f5a0aRCRD&vgnextoid=82293acad95f9710VgnVCM1000001d4a900aRCRD,HTML,true,http://vocab.linkeddata.es/datosabiertos/kos/cultura-ocio/agenda/tipo-evento/danza,,,true,Presencial,,,Jovenes,,16-,2022-06-24T19:00:00+01:00,2022-07-10,Por empezar,Comunidad de Madrid,Madrid,Naves Español en Matadero,6963121,PASEO CHOPERA 14,28045
11636800,El libro que se sentía solo,"Actividad de animación a la lectura, para niñas y niños de 5 a 8 años, en la que disfrutaremos de este libro a través de diferentes recursos que nos hagan disfrutar de la misma. Imprescindible inscripción previa a través de formulario disponible, a partir del 4 de abril, en el apartado Información relacionada Por cada inscripción entrará el menor participante acompañado de un adulto. La biblioteca confirmará la inscripción.",https://www.madrid.es/UnidadesDescentralizadas/Bibliotecas/BibliotecasPublicas/ActividadesBPM/CuentosInfantiles/HorasDeCuento/ficheros/LaHoradelCuentoPioBaroja_260x260.jpg,http://www.madrid.es/sites/v/index.jsp?vgnextchannel=ca9671ee4a9eb410VgnVCM100000171f5a0aRCRD&vgnextoid=15f03301c1bbf710VgnVCM1000001d4a900aRCRD,HTML,true,http://vocab.linkeddata.es/datosabiertos/kos/cultura-ocio/agenda/tipo-evento/cuento,,,true,Presencial,,,Infantil,,5-8,2022-04-21T18:00:00+01:00,2022-04-21,Terminado,Comunidad de Madrid,Madrid,Biblioteca Pública Municipal Pío Baroja (Arganzuela),1763,CALLE ARGANDA 12,28005
11638469,El profesor chiflado,Magia infantil. Sinopsis: Un espectáculo en el que la ciencia y la magia se unen de la mano para sorprender a los más pequeños con divertidos experimentos y juegos de magia. ,https://www.madrid.es/UnidadesDescentralizadas/DistritoMoratalaz/Actividades/2022/Abril/ficheros/chiflado.jpg,http://www.madrid.es/sites/v/index.jsp?vgnextchannel=ca9671ee4a9eb410VgnVCM100000171f5a0aRCRD&vgnextoid=c96fb2b0ea0cf710VgnVCM1000001d4a900aRCRD,HTML,true,http://vocab.linkeddata.es/datosabiertos/kos/cultura-ocio/agenda/tipo-evento/pelicula,,,true,Presencial,,,Infantil,,3-12,2022-04-09T18:00:00+01:00,2022-04-09,Terminado,Comunidad de Madrid,Madrid,Centro Cultural el Torito (Moratalaz),1940,AVENIDA MORATALAZ 130,28030
11643150,En un muelle de Normandía,"Una reconocida autora decide escribir un libro sobre la precariedad laboral. Para ello, ocultando su identidad, consigue trabajo como limpiadora en un pueblo de Normandía, y descubre una vida ignorada por el resto de la sociedad.",https://www.madrid.es/UnidadWeb/UGBBDD/Actividades/Distritos/SanBlas/ficheros/lossabcine.bmp,http://www.madrid.es/sites/v/index.jsp?vgnextchannel=ca9671ee4a9eb410VgnVCM100000171f5a0aRCRD&vgnextoid=65c5f832825df710VgnVCM1000001d4a900aRCRD,HTML,true,http://vocab.linkeddata.es/datosabiertos/kos/cultura-ocio/agenda/tipo-evento/pelicula,,,true,Presencial,,,Jovenes,,12-,2022-06-04T19:00:00+01:00,2022-06-04T20:45:00+01:00,Por empezar,Comunidad de Madrid,Madrid,Centro Cultural Buero Vallejo (San Blas - Canillejas),1943,CALLE BOLTA&amp;Ntilde;A 27,28022
11413111,En un sol amarillo. Memorias de un temblor,"En un sol amarillo es una obra que reflexiona sobre la tragedia y la corrupción, recuenta la historia de una comunidad frente a la devastación. Está basada en el terremoto que en 1998 dejó decenas de comunidades bolivianas destruidas. ",https://www.madrid.es/UnidadWeb/UGBBDD/MadridDestino/ficheros/MADRID_DESTINO_35198_es.jpeg,http://www.madrid.es/sites/v/index.jsp?vgnextchannel=ca9671ee4a9eb410VgnVCM100000171f5a0aRCRD&vgnextoid=41793acad95f9710VgnVCM1000001d4a900aRCRD,HTML,true,http://vocab.linkeddata.es/datosabiertos/kos/cultura-ocio/agenda/tipo-evento/teatro,,,true,Presencial,,,Todos los públicos,,12-,2022-07-13T19:30:00+01:00,2022-07-17,Por empezar,Comunidad de Madrid,Madrid,Naves Español en Matadero,6963121,PASEO CHOPERA 14,28045
11514185,Espacio de crianza y juego libre,El día 9 de noviembre dará comienzo el Espacio de Crianza y Juego Libre.,https://www.madrid.es/UnidadesDescentralizadas/DistritoRetiro/FICHEROS/FICHEROS%20ACTIVIDADES%20NOVIEMBRE/crianza.jpg,http://www.madrid.es/sites/v/index.jsp?vgnextchannel=ca9671ee4a9eb410VgnVCM100000171f5a0aRCRD&vgnextoid=cfe713f0840fc710VgnVCM1000001d4a900aRCRD,HTML,true,,,,true,Presencial,,,Familias,,0-,2021-11-09T17:30:00+01:00,2022-06-28,Por empezar,Comunidad de Madrid,Madrid,Centro Sociocultural Clara Campoamor (Retiro),8637537,PLAZA DAOIZ Y VELARDE 2,28007
11580736,GET NO - Latina,"GET NO es un lugar de paso en el que contemplar, un no lugar. Un millón de rincones transitables y encuentros fugaces como en un aeropuerto. Personas que se detienen, historias breves que son observadas en el tiempo que dura un pestañear de ojos o que puede durar eternamente.",https://www.madrid.es/UnidadesDescentralizadas/CiudadDistrito/ficheros/CIUDAD_DISTRITO_132606_es.jpg,http://www.madrid.es/sites/v/index.jsp?vgnextchannel=ca9671ee4a9eb410VgnVCM100000171f5a0aRCRD&vgnextoid=3a361fc9c969e710VgnVCM1000001d4a900aRCRD,HTML,true,http://vocab.linkeddata.es/datosabiertos/kos/cultura-ocio/agenda/tipo-evento/danza,,,true,Presencial,,,Jovenes,,16-,2022-06-18T19:00:00+01:00,2022-06-18,Por empezar,Comunidad de Madrid,Madrid,Auditorio y sala de exposiciones Paco de Lucía (Latina),139451,AVENIDA LAS AGUILAS 2,28044
11634548,Hechos luctuosos del Madrid Antiguo,"Acompáñanos en la visita guiada Hechos luctuosos del Madrid Antiguo, donde conoceremos aquellos acontecimientos y leyendas negras que removieron los sentimientos de la población. Incendios, historias urbanas, casas abandonadas, viviendas derribadas, epidemias, condenas y todas aquellas vivencias que vivieron los habitantes de la ciudad en aquella época tan sombría.",https://www.madrid.es/UnidadesDescentralizadas/Bibliotecas/BibliotecasPublicas/ActividadesBPM/RutasCulturales/ficheros/luctuosos_260.jpg,http://www.madrid.es/sites/v/index.jsp?vgnextchannel=ca9671ee4a9eb410VgnVCM100000171f5a0aRCRD&vgnextoid=710cffb77b0bf710VgnVCM2000001f4a900aRCRD,HTML,true,http://vocab.linkeddata.es/datosabiertos/kos/cultura-ocio/agenda/tipo-evento/exposicion,,,true,Presencial,,,Todos los públicos,,0-,2022-06-22T11:00:00+01:00,2022-06-22,Por empezar,Comunidad de Madrid,Madrid,Biblioteca Pública Municipal La Elipa (Ciudad Lineal),51849,CALLE NUESTRA SEÑORA DEL VILLAR 6,28017
11637390,Homenaje a Sara Montiel,"Un homenaje a Sara Montiel lleno de respeto y admiración.  La cantante y compositora interpretará sus temas más populares, acompañándose de proyecciones con fragmentos de sus películas. ",https://www.madrid.es/UnidadesDescentralizadas/DistritoCiudadLineal/PROGRAMACIONCULTURAL/2022ABRIL/CC%20SAN%20JUAN%20BAUTISTA/Eventos/ficheros/Pepa.jpg,http://www.madrid.es/sites/v/index.jsp?vgnextchannel=ca9671ee4a9eb410VgnVCM100000171f5a0aRCRD&vgnextoid=d5bd5d8cc3cbf710VgnVCM2000001f4a900aRCRD,HTML,true,http://vocab.linkeddata.es/datosabiertos/kos/cultura-ocio/agenda/tipo-evento/concierto,,,true,Presencial,,,Todos los públicos,,16-,2022-04-09T19:00:00+01:00,2022-04-09T20:00:00+01:00,Terminado,Comunidad de Madrid,Madrid,Centro Cultural San Juan Bautista (Ciudad Lineal),1958,CALLE SAN NEMESIO 4,28043
11643194,Josefina,"Un funcionario de prisiones, observa en silencio cada domingo la visita de la madre de uno de los presos. El día que por fin logra acercarse a ella, se sorprende a sí mismo haciéndose pasar por otro padre e inventándose a una hija dentro de la cárcel: Josefina.",https://www.madrid.es/UnidadWeb/UGBBDD/Actividades/Distritos/SanBlas/ficheros/lossabcine.bmp,http://www.madrid.es/sites/v/index.jsp?vgnextchannel=ca9671ee4a9eb410VgnVCM100000171f5a0aRCRD&vgnextoid=ed96f832825df710VgnVCM1000001d4a900aRCRD,HTML,true,http://vocab.linkeddata.es/datosabiertos/kos/cultura-ocio/agenda/tipo-evento/pelicula,,,true,Presencial,,,Jovenes,,7-,2022-06-11T19:00:00+01:00,2022-06-11T20:30:00+01:00,Por empezar,Comunidad de Madrid,Madrid,Centro Cultural Buero Vallejo (San Blas - Canillejas),1943,CALLE BOLTA&amp;Ntilde;A 27,28022
7644875,Jueves de Hability,El Centro Juvenil de Carabanchel te ofrece varios juegos y pruebas para que podamos descubrir tus habilidades más ocultas.,,http://www.madrid.es/sites/v/index.jsp?vgnextchannel=ca9671ee4a9eb410VgnVCM100000171f5a0aRCRD&vgnextoid=c4e4d5b676c98410VgnVCM1000000b205a0aRCRD,HTML,true,http://vocab.linkeddata.es/datosabiertos/kos/cultura-ocio/agenda/tipo-evento/concierto,,,true,Presencial,,,Jovenes,12,16-,2022-04-07T18:00:00+01:00,2022-04-28T19:00:00+01:00,Terminado,Comunidad de Madrid,Madrid,Centro Juvenil Carabanchel Alto,4703662,CALLE ALFONSO FERNANDEZ 23,28044
11413103,Là,"¿Qué queda cuando se ha eliminado todo? Sin duda queda el blanco. Y lo que aún tendremos que hacer añicos para llegar al mínimo común denominador. A lo que, obstinadamente, nos sigue hablando de Là, desde Là. Cueste lo que cueste. Se escape lo que se escape. Tanto por el encantamiento y el viaje, como por la alegría",https://www.madrid.es/UnidadWeb/UGBBDD/MadridDestino/ficheros/MADRID_DESTINO_35196_es.jpeg,http://www.madrid.es/sites/v/index.jsp?vgnextchannel=ca9671ee4a9eb410VgnVCM100000171f5a0aRCRD&vgnextoid=dc093acad95f9710VgnVCM1000001d4a900aRCRD,HTML,true,http://vocab.linkeddata.es/datosabiertos/kos/cultura-ocio/agenda/tipo-evento/danza,,,true,Presencial,,,Adultos,,18-,2022-06-08T19:00:00+01:00,2022-06-11,Por empezar,Comunidad de Madrid,Madrid,Naves Español en Matadero,6963121,PASEO CHOPERA 14,28045
11413115,La mirada del avestruz,"La obra toma como punto de partida las huellas que ha dejado la violencia en Colombia y cómo el desplazamiento forzado ha sido una de las consecuencias más evidentes del conflicto armado. Las imágenes de violencia resultan inevitables, aunque muy lejos de cualquier denuncia literal o partidista. Más bien, se trata de observar la forma en que los cuerpos son agredidos y amenazados mientras parecen refugiarse en un mundo interior y ocultar la mirada frente a la realidad agobiante. Tal como hace el avestruz cuando esconde la cabeza en la tierra.",https://www.madrid.es/UnidadWeb/UGBBDD/MadridDestino/ficheros/MADRID_DESTINO_35195_es.jpeg,http://www.madrid.es/sites/v/index.jsp?vgnextchannel=ca9671ee4a9eb410VgnVCM100000171f5a0aRCRD&vgnextoid=50b93acad95f9710VgnVCM1000001d4a900aRCRD,HTML,true,http://vocab.linkeddata.es/datosabiertos/kos/cultura-ocio/agenda/tipo-evento/danza,,,true,Presencial,,,Adultos,,18-,2022-06-09T19:30:00+01:00,2022-06-12,Por empezar,Comunidad de Madrid,Madrid,Naves Español en Matadero,6963121,PASEO CHOPERA 14,28045
11579708,La Perra Blanco - Tetuan,"Tomando como inspiración la música de los años 50, en 2017 nace La Perra Blanco, el power trío fundado y liderado por Alba Blanco. ",https://www.madrid.es/UnidadesDescentralizadas/CiudadDistrito/ficheros/CIUDAD_DISTRITO_132507_es.jpg,http://www.madrid.es/sites/v/index.jsp?vgnextchannel=ca9671ee4a9eb410VgnVCM100000171f5a0aRCRD&vgnextoid=2a7c7af38559e710VgnVCM1000001d4a900aRCRD,HTML,true,http://vocab.linkeddata.es/datosabiertos/kos/cultura-ocio/agenda/tipo-evento/concierto,,,true,Presencial,,,Adultos,,16-,2022-11-25T19:00:00+01:00,2022-11-25,Por empezar,Comunidad de Madrid,Madrid,Centro Cultural Nicolás Salmerón (Chamartín),1932,CALLE MANTUANO 51,28002
11413096,La vida es sueño,¿De cuántos sueños se compone la vida? ¿Nos permitimos soñar? ¿Cuántas clases de sueños hay cuando uno se busca hasta encontrarse? ¿Quiénes nos provocan las pesadillas? ¿Para qué se provocan las pesadillas? ¿Hacia dónde encaminamos nuestra vida y la de los nuestros? ¿Con qué sueña la autoridad? ¿Somos dueños de nuestros actos?,https://www.madrid.es/UnidadWeb/UGBBDD/MadridDestino/ficheros/MADRID_DESTINO_35194_es.jpeg,http://www.madrid.es/sites/v/index.jsp?vgnextchannel=ca9671ee4a9eb410VgnVCM100000171f5a0aRCRD&vgnextoid=dee83acad95f9710VgnVCM1000001d4a900aRCRD,HTML,true,http://vocab.linkeddata.es/datosabiertos/kos/cultura-ocio/agenda/tipo-evento/teatro,,,true,Presencial,,,,,,2022-06-01T19:00:00+01:00,2022-06-05,Cancelado,Comunidad de Madrid,Madrid,Naves Español en Matadero,6963121,PASEO CHOPERA 14,28045
11483995,Las aventuras del Doctor Dolittle,"Todos los viernes la biblioteca ofrece sesiones de cine. Películas clásicas y más actuales para el disfrute de toda la familia. Entrada libre hasta completar aforo. Se respetaran todas las medidas Covid (mascarilla obligatoria, uso de gel hidroalcohólico, distancia de seguridad).",https://www.madrid.es/UnidadesDescentralizadas/Bibliotecas/BibliotecasPublicas/ActividadesBPM/2018/ProyeccionConciertoDramatizacion/ficheros/CineInfantil_260x260.jpg,http://www.madrid.es/sites/v/index.jsp?vgnextchannel=ca9671ee4a9eb410VgnVCM100000171f5a0aRCRD&vgnextoid=04e0cb1f1a63c710VgnVCM1000001d4a900aRCRD,HTML,true,http://vocab.linkeddata.es/datosabiertos/kos/cultura-ocio/agenda/tipo-evento/pelicula,,,true,Presencial,,,Infantil,,0-16,2022-04-08T18:00:00+01:00,2022-04-08,Terminado,Comunidad de Madrid,Madrid,Biblioteca Pública Municipal José Hierro (San Blas-Canillejas),115056,CALLE MARIA SEVILLA DIAGO 15,28022
11643216,"Las cosas que decimos, las cosas que hacemos","Una joven, embarazada de tres meses y de vacaciones en el campo, acoge como huésped a un primo de su pareja. Durante cuatro días se van conociendo, desarrollando cierta amistad y contándose sus respectivas experiencias sentimentales.",https://www.madrid.es/UnidadWeb/UGBBDD/Actividades/Distritos/SanBlas/ficheros/lossabcine.bmp,http://www.madrid.es/sites/v/index.jsp?vgnextchannel=ca9671ee4a9eb410VgnVCM100000171f5a0aRCRD&vgnextoid=59a7f832825df710VgnVCM1000001d4a900aRCRD,HTML,true,http://vocab.linkeddata.es/datosabiertos/kos/cultura-ocio/agenda/tipo-evento/pelicula,,,true,Presencial,,,Jovenes,,12-,2022-06-18T19:00:00+01:00,2022-06-18T21:00:00+01:00,Por empezar,Comunidad de Madrid,Madrid,Centro Cultural Buero Vallejo (San Blas - Canillejas),1943,CALLE BOLTA&amp;Ntilde;A 27,28022
11637392,Las desventuras de Don Quijote,Don Quijote y Sancho Panza mostrarán algunas de las aventuras que les suceden en su camino. ,https://www.madrid.es/UnidadesDescentralizadas/DistritoCiudadLineal/PROGRAMACIONCULTURAL/2022ABRIL/CC%20SAN%20JUAN%20BAUTISTA/Eventos/ficheros/Desventuras.jpg,http://www.madrid.es/sites/v/index.jsp?vgnextchannel=ca9671ee4a9eb410VgnVCM100000171f5a0aRCRD&vgnextoid=82dd5d8cc3cbf710VgnVCM2000001f4a900aRCRD,HTML,true,http://vocab.linkeddata.es/datosabiertos/kos/cultura-ocio/agenda/tipo-evento/teatro,,,true,Presencial,,,Infantil,,5-8,2022-04-23T18:00:00+01:00,2022-04-23T18:50:00+01:00,Terminado,Comunidad de Madrid,Madrid,Centro Cultural San Juan Bautista (Ciudad Lineal),1958,CALLE SAN NEMESIO 4,28043
11577835,Lichis (Puente de Vallecas),"Barcelonés de nacimiento y madrileño de adopción, Lichis fue responsable, poeta y voz de La Cabra Mecánica, el aclamado grupo nacional de pop-rock de los 2000.Más adelante, en solitario, logró emocionarnos con Tras Modo Avión (2014)y Mariposas & Torneos de Verano (2018), un descarnado e íntimo análisis introspectivo en el que nos abrió su alma.",https://www.madrid.es/UnidadesDescentralizadas/CiudadDistrito/ficheros/CIUDAD_DISTRITO_131745_es.jpg,http://www.madrid.es/sites/v/index.jsp?vgnextchannel=ca9671ee4a9eb410VgnVCM100000171f5a0aRCRD&vgnextoid=8afe4eb42e98e710VgnVCM2000001f4a900aRCRD,HTML,true,http://vocab.linkeddata.es/datosabiertos/kos/cultura-ocio/agenda/tipo-evento/concierto,,,true,Presencial,,,Jovenes,,16-,2022-12-03T20:00:00+01:00,2022-12-03,Por empezar,Comunidad de Madrid,Madrid,Centro Cultural Pozo del tío Raimundo (Puente de Vallecas),1939,AVENIDA DE LAS GLORIETAS 19,28053
11643484,Ludens Cía. La potínguele,"Aura y Leo se mueven, juegan y el día comienza. No hay color y ellos cantan. El color aparece, trae pájaros y estos, relatos. La necesidad de comer, el juego. Después viene la calma y un tren llega con una maleta y una sorpresa: un carrusel que gira mientras cuentan el día transcurrido. Ella se duerme, él se despide con un beso y el día termina.",https://www.madrid.es/UnidadesDescentralizadas/DistritoCiudadLineal/PROGRAMACIONCULTURAL/2022ABRIL/CC%20PRINCIPE%20DE%20ASTURIAS/Eventos/ficheros/Ludenspontingue.png,http://www.madrid.es/sites/v/index.jsp?vgnextchannel=ca9671ee4a9eb410VgnVCM100000171f5a0aRCRD&vgnextoid=6c8251693d5df710VgnVCM2000001f4a900aRCRD,HTML,true,http://vocab.linkeddata.es/datosabiertos/kos/cultura-ocio/agenda/tipo-evento/cuento,,,true,Presencial,,,Infantil,,1-5,2022-06-04T11:30:00+01:00,2022-06-04,Por empezar,Comunidad de Madrid,Madrid,Centro Cultural Príncipe de Asturias (Ciudad Lineal),1952,CALLE HERMANOS GARCIA NOBLEJAS 14,28037
11598526,Maliang y el pincel mágico (Tetuán),"Maliang siempre deseó ser pintor pero su familia era pobre, el dinero escaseaba y no podían comprar pinturas y pinceles. A pesar de ello, Maliang persiguió su sueño hasta que un día su obstinación se vio recompensada con el regalo de un anciano: un pincel mágico que dotaba de vida todo aquello que pintaba. Por desgracia, este acontecimiento llegó a oídos del emperador, un hombre codicioso y sin corazón que a toda costa se propuso conseguir aquel maravilloso objeto",https://www.madrid.es/UnidadesDescentralizadas/CiudadDistrito/ficheros/CIUDAD_DISTRITO_134083_es.jpg,http://www.madrid.es/sites/v/index.jsp?vgnextchannel=ca9671ee4a9eb410VgnVCM100000171f5a0aRCRD&vgnextoid=30ff36c886cfe710VgnVCM2000001f4a900aRCRD,HTML,true,http://vocab.linkeddata.es/datosabiertos/kos/cultura-ocio/agenda/tipo-evento/teatro,,,true,Presencial,,,Infantil,,0-16,2022-11-12T12:00:00+01:00,2022-11-12,Por empezar,Comunidad de Madrid,Madrid,Centro Cultural Eduardo Úrculo (Tetuán),5498725,PLAZA DONOSO 5,28029
11413089,Malvivir,"Malvivir cuenta en primera persona la vida secreta de la pícara Elena de Paz, mujer libre, rebelde, ladrona, ingeniosa, embustera y fugitiva que desafía todas las convenciones de su época y paga el precio de su libertad.",https://www.madrid.es/UnidadWeb/UGBBDD/MadridDestino/ficheros/MADRID_DESTINO_35192_es.jpeg,http://www.madrid.es/sites/v/index.jsp?vgnextchannel=ca9671ee4a9eb410VgnVCM100000171f5a0aRCRD&vgnextoid=d9b83acad95f9710VgnVCM1000001d4a900aRCRD,HTML,true,http://vocab.linkeddata.es/datosabiertos/kos/cultura-ocio/agenda/tipo-evento/teatro,,,true,Presencial,,,Adultos,,18-,2022-05-05T19:30:00+01:00,2022-06-05,Por empezar,Comunidad de Madrid,Madrid,Naves Español en Matadero,6963121,PASEO CHOPERA 14,28045
11588309,Masculinidades y sexualidad consciente,"Taller para hombres en el que reflexionar sobre el modelo hegemónico de sexualidad desde un enfoque de género y violencia para propiciar esquemas personalizados basados en el autoconocimiento, la responsabilidad y el cuidado que permitan entender el placer como una vía hacia la reparación",https://www.madrid.es/UnidadesDescentralizadas/IgualdadDeOportunidades/ContenidosBasicos/Actividades/Espacios%20Igualdad/2022/elenaarnedo/ficheros/lunes_masculinidades_arnedo.jpg,http://www.madrid.es/sites/v/index.jsp?vgnextchannel=ca9671ee4a9eb410VgnVCM100000171f5a0aRCRD&vgnextoid=8ed58d03a6abe710VgnVCM2000001f4a900aRCRD,HTML,true,http://vocab.linkeddata.es/datosabiertos/kos/cultura-ocio/agenda/tipo-evento/taller,,,true,Presencial,,,Jovenes,,16-,2022-02-07T18:30:00+01:00,2022-06-06T20:00:00+01:00,Por empezar,Comunidad de Madrid,Madrid,Espacio de Igualdad Elena Arnedo Soriano. Retiro,10662957,CALLE ARREGUI Y ARUEJ 31,28007
11642687,Mica Mita  Cía. por humor al arte,"Un espectáculo de teatro, danza, pocas palabras y muy buen humor. Mica llega para irse? para irse a su camita. Parece sencillo, pero Mica se enreda porque el abrigo va por su cuenta, los zapatos bailan solos, su pijama está del revés, juega con una pluma y descubre que su sábana sabe un montón de secretos. Pí Pi? ja, ja, jaaa? mamá? ¡¡PIJAMA!!",https://www.madrid.es/UnidadesDescentralizadas/DistritoCiudadLineal/PROGRAMACIONCULTURAL/2022ABRIL/CC%20PRINCIPE%20DE%20ASTURIAS/Eventos/ficheros/MicaMita-Principe-.jpg,http://www.madrid.es/sites/v/index.jsp?vgnextchannel=ca9671ee4a9eb410VgnVCM100000171f5a0aRCRD&vgnextoid=6f01dff2fa4df710VgnVCM1000001d4a900aRCRD,HTML,true,http://vocab.linkeddata.es/datosabiertos/kos/cultura-ocio/agenda/tipo-evento/cuento,,,true,Presencial,,,Infantil,,1-5,2022-04-02T11:30:00+01:00,2022-04-02,Terminado,Comunidad de Madrid,Madrid,Centro Cultural Príncipe de Asturias (Ciudad Lineal),1952,CALLE HERMANOS GARCIA NOBLEJAS 14,28037
11644457,Mica Mita Cía. por humor al arte  TEATRO PARA BEBÉS,"Un espectáculo de teatro, danza, pocas palabras y muy buen humor. Mica llega para irse? para irse a su camita. Parece sencillo, pero Mica se enreda porque el abrigo va por su cuenta, los zapatos bailan solos, su pijama está del revés, juega con una pluma y descubre que su sábana sabe un montón de secretos. Pí Pi? ja, ja, jaaa? mamá? ¡¡PIJAMA!! ",https://www.madrid.es/UnidadesDescentralizadas/DistritoCiudadLineal/PROGRAMACIONCULTURAL/2022ABRIL/CC%20PRINCIPE%20DE%20ASTURIAS/ficheros/MicaMitaPrincipe.jpg,http://www.madrid.es/sites/v/index.jsp?vgnextchannel=ca9671ee4a9eb410VgnVCM100000171f5a0aRCRD&vgnextoid=6d91556ffbadf710VgnVCM1000001d4a900aRCRD,HTML,true,http://vocab.linkeddata.es/datosabiertos/kos/cultura-ocio/agenda/tipo-evento/cuento,,,true,Presencial,,,Infantil,,0-16,2022-04-02T11:30:00+01:00,2022-04-02T13:40:00+01:00,Terminado,Comunidad de Madrid,Madrid,Centro Cultural Príncipe de Asturias (Ciudad Lineal),1952,CALLE HERMANOS GARCIA NOBLEJAS 14,28037
11642694,"Porque Do, porque Si Cía. Teatro Tyl Tyl","Aquí convive lo onírico y lo cotidiano en el atrevimiento de vivir. Los personajes son porque hacen y por este motivo crean un espacio. Todo empieza en el lugar en el que cabe la respiración. Elementos familiares como aire, tierra y mesa, generan un espacio de convivencia para la escena extra cotidiana y son a la vez los instrumentos narrativos.",https://www.madrid.es/UnidadesDescentralizadas/DistritoCiudadLineal/PROGRAMACIONCULTURAL/2022ABRIL/CC%20PRINCIPE%20DE%20ASTURIAS/Eventos/ficheros/PorqueDoporqueSi.jpg,http://www.madrid.es/sites/v/index.jsp?vgnextchannel=ca9671ee4a9eb410VgnVCM100000171f5a0aRCRD&vgnextoid=59e1dff2fa4df710VgnVCM1000001d4a900aRCRD,HTML,true,http://vocab.linkeddata.es/datosabiertos/kos/cultura-ocio/agenda/tipo-evento/cuento,,,true,Presencial,,,Infantil,,1-5,2022-05-07T11:30:00+01:00,2022-05-07,Terminado,Comunidad de Madrid,Madrid,Centro Cultural Príncipe de Asturias (Ciudad Lineal),1952,CALLE HERMANOS GARCIA NOBLEJAS 14,28037
11640419,Salvando al planeta,"Teatro infantil. Sinopsis: Los animales de un pequeño pueblo empiezan a desaparecer, y todo parece indicar que un Ogro anda detrás del asunto. Una intrépida campesina se pone manos a la obra para intentar solucionar este misterio. En su investigación descubrirá algo sorprendente, el Ogro sólo intenta salvar a los animales por la contaminación y el poco respeto por la naturaleza que tienen los habitantes del pueblo. Entre todos y todas encontrarán las mejores soluciones para no contaminar y cuidar mejor nuestro entorno. Temática: Cuidado del Medio Ambiente, Reciclaje e igualdad.",https://www.madrid.es/UnidadesDescentralizadas/DistritoMoratalaz/Actividades/2022/Abril/ficheros/salvandoplaneta.jpg,http://www.madrid.es/sites/v/index.jsp?vgnextchannel=ca9671ee4a9eb410VgnVCM100000171f5a0aRCRD&vgnextoid=10042bbe480df710VgnVCM2000001f4a900aRCRD,HTML,true,http://vocab.linkeddata.es/datosabiertos/kos/cultura-ocio/agenda/tipo-evento/teatro,,,true,Presencial,,,Infantil,,2-10,2022-04-09T12:00:00+01:00,2022-04-09,Terminado,Comunidad de Madrid,Madrid,Centro Cultural el Torito (Moratalaz),1940,AVENIDA MORATALAZ 130,28030
11625471,Sesiones de abordaje de la soledad,"El taller, impartido por María del Mar Díaz-Parreño, tiene como objetivo la identificación de la soledad no deseada y el conocimiento de las emociones asociadas a ella para favorecer la integración social de la persona.",https://www.madrid.es/UnidadesDescentralizadas/Bibliotecas/BibliotecasPublicas/ActividadesBPM/TalleresAdultos/ficheros/Abordaje%20soledad_260x260.jpg,http://www.madrid.es/sites/v/index.jsp?vgnextchannel=ca9671ee4a9eb410VgnVCM100000171f5a0aRCRD&vgnextoid=68f5d42fe687f710VgnVCM1000001d4a900aRCRD,HTML,true,http://vocab.linkeddata.es/datosabiertos/kos/cultura-ocio/agenda/tipo-evento/taller,,,true,Presencial,,,Adultos,,60-,2022-04-01T12:00:00+01:00,2022-06-03,Por empezar,Comunidad de Madrid,Madrid,Biblioteca Pública Municipal Aluche (Latina),1757,CALLE CAMARENA 10,28047
11578004,Somos la guerra (Puente de Vallecas),"Somos la guerra es el II Capítulo de Bekristen/ Cristianos, una trilogía de la compañía de danza La Phármaco que surge después de cinco años de proyectos de danza y cooperación en países de África, Asia y América.",https://www.madrid.es/UnidadesDescentralizadas/CiudadDistrito/ficheros/CIUDAD_DISTRITO_131743_es.jpg,http://www.madrid.es/sites/v/index.jsp?vgnextchannel=ca9671ee4a9eb410VgnVCM100000171f5a0aRCRD&vgnextoid=6c537523bfa8e710VgnVCM2000001f4a900aRCRD,HTML,true,http://vocab.linkeddata.es/datosabiertos/kos/cultura-ocio/agenda/tipo-evento/danza,,,true,Presencial,,,Jovenes,,16-,2022-06-25T19:00:00+01:00,2022-06-25,Por empezar,Comunidad de Madrid,Madrid,Centro Cultural Pozo del tío Raimundo (Puente de Vallecas),1939,AVENIDA DE LAS GLORIETAS 19,28053
11645067,Taller de ansiedad y estrés,"Organiza el taller: Centro Cultural de Hortaleza y Equipo de Psicología del Centro Madrid-Salud Hortaleza: calle Juan Clemente Nuñez, 3.",,http://www.madrid.es/sites/v/index.jsp?vgnextchannel=ca9671ee4a9eb410VgnVCM100000171f5a0aRCRD&vgnextoid=84acb78830fdf710VgnVCM2000001f4a900aRCRD,HTML,true,http://vocab.linkeddata.es/datosabiertos/kos/cultura-ocio/agenda/tipo-evento/taller,,,true,Presencial,,,Jovenes,,16-,2022-04-19T10:00:00+01:00,2022-06-14T14:00:00+01:00,Por empezar,Comunidad de Madrid,Madrid,Centro Cultural Hortaleza,1930,CALLE SANTA VIRGILIA 15,28033
11593905,Taller de Beatbox - Villa de Vallecas,"Este taller nos introducirá en las bases del beatboxing, entrelazando cuerpo y tecnología con herramientas de producción y composición sonora, en un ambiente distendido favorecido por la libertad creativa, los procesos de aprendizaje en comunidad y la imaginación como motor de creación.",https://www.madrid.es/UnidadesDescentralizadas/CiudadDistrito/ficheros/CIUDAD_DISTRITO_133748_es.jpg,http://www.madrid.es/sites/v/index.jsp?vgnextchannel=ca9671ee4a9eb410VgnVCM100000171f5a0aRCRD&vgnextoid=c3d4a3e73f8de710VgnVCM1000001d4a900aRCRD,HTML,true,http://vocab.linkeddata.es/datosabiertos/kos/cultura-ocio/agenda/tipo-evento/taller,,,true,Presencial,,,Jovenes,,16-,2022-10-23T10:00:00+01:00,2022-10-23T13:00:00+01:00,Por empezar,Comunidad de Madrid,Madrid,Centro Juvenil El Sitio de mi Recreo (Villa de Vallecas),182139,CALLE REAL DE ARGANDA 39,28031
11611820,Taller de poesía y narrativa,"En este taller de poesía y narrativa se pretende proporcionar al alumno la mayor cantidad posible de recursos y conceptos para pulir y mejorar su escritura, sean poemas, prosa poética o prosa.",https://www.madrid.es/UnidadesDescentralizadas/Bibliotecas/BibliotecasPublicas/ActividadesBPM/TalleresAdultos/ficheros/TallerPoesiaNarrativa_260x260.jpg,http://www.madrid.es/sites/v/index.jsp?vgnextchannel=ca9671ee4a9eb410VgnVCM100000171f5a0aRCRD&vgnextoid=df70dc98c1c2f710VgnVCM1000001d4a900aRCRD,HTML,true,http://vocab.linkeddata.es/datosabiertos/kos/cultura-ocio/agenda/tipo-evento/taller,,,true,Presencial,,,Jovenes,,16-,2022-03-04T10:30:00+01:00,2022-06-24,Por empezar,Comunidad de Madrid,Madrid,Biblioteca Pública Municipal Miguel Delibes (Moratalaz),1752,CALLE ARROYO BELINCOSO 11,28030
